GLOBALSTAR M024         
1 25883U 99043A   26006.26376344 -.00000029  00000+0  12677-2 0  9996
2 25883  52.0024 282.4116 0002278  61.3346 112.2391 11.10165712137417
GLOBALSTAR M027         
1 25884U 99043B   26006.24377595 -.00000053  00000+0  39728-3 0  9998
2 25884  52.0244   6.1894 0021341 319.4186  40.5016 11.04372647163671
GLOBALSTAR M054         
1 25885U 99043C   26006.23740473 -.00000067  00000+0  10402-3 0  9990
2 25885  52.0145  99.4252 0005480 161.2871 211.1542 11.39224905142190
GLOBALSTAR M053         
1 25886U 99043D   26006.33317729 -.00000055  00000+0  40762-3 0  9995
2 25886  52.0001  57.5623 0003500  76.4164   7.0246 11.27669057142362
GLOBALSTAR M058         
1 25907U 99049A   26006.20040279 -.00000042  00000+0  57386-3 0  9990
2 25907  51.9954 287.0737 0001826 322.8921  37.1788 11.93206508565775
GLOBALSTAR M050         
1 25908U 99049B   26006.12803877 -.00000121  00000+0 -37360-3 0  9992
2 25908  51.9994 279.7808 0009903  74.4407  65.8658 12.07463319172702
GLOBALSTAR M033         
1 25909U 99049C   26005.74788371 -.00000026  00000+0  62769-3 0  9995
2 25909  51.9899 138.6641 0013434 323.7614  36.2323 12.20295896560473
GLOBALSTAR M055         
1 25910U 99049D   26005.61289314 -.00000099  00000+0 -42816-4 0  9999
2 25910  52.0007 139.9325 0007193 183.5698 176.5104 12.29438860193184
